IRIDIUM 155             
1 43573U 18061E   23118.51202287  .00000350  00000+0  11784-3 0  9991
2 43573  86.4016 175.4992 0002485 100.7332 259.4143 14.34216656249147
IRIDIUM 154             
1 43574U 18061F   23119.12091590  .00000042  00000+0  80440-5 0  9998
2 43574  86.4020 175.3230 0002107  93.7357 266.4080 14.34216171249281
IRIDIUM 163             
1 43575U 18061G   23118.82280700  .00000327  00000+0  10958-3 0  9999
2 43575  86.4017 175.3985 0002283  91.2091 268.9366 14.34214270249213
IRIDIUM 156             
1 43576U 18061H   23119.14628485  .00000312  00000+0  10449-3 0  9991
2 43576  86.4015 175.2690 0002594  94.8756 265.2736 14.34219994249248
IRIDIUM 164             
1 43577U 18061J   23118.42956652  .00000127  00000+0  38179-4 0  9997
2 43577  86.4019 175.5904 0002346  89.9275 270.2189 14.34215722249197
IRIDIUM 159             
1 43578U 18061K   23119.51414771  .00000287  00000+0  95326-4 0  9994
2 43578  86.4017 175.0994 0002290  97.2544 262.8912 14.34218225249315
IRIDIUM 180             
1 43922U 19002A   23118.46711416  .00000330  00000+0  11089-3 0  9994
2 43922  86.3921 112.4573 0002225  86.3802 273.7648 14.34214920224771
IRIDIUM 176             
1 43923U 19002B   23119.03909363  .00000535  00000+0  80895-4 0  9998
2 43923  86.6055 112.2583 0002757  92.8507 267.3025 14.72267094230762
IRIDIUM 168             
1 43924U 19002C   23118.46077883  .00000189  00000+0  60519-4 0  9994
2 43924  86.3923 112.5046 0002198  88.1748 271.9699 14.34217699224759
IRIDIUM 173             
1 43925U 19002D   23118.72716261 -.00000668  00000+0 -24575-3 0  9999
2 43925  86.3922 112.3289 0002078  84.0816 276.0617 14.34215847224786
IRIDIUM 169             
1 43926U 19002E   23119.43381373  .00000210  00000+0  62199-4 0  9997
2 43926  86.4218 143.6403 0005235 131.1786 228.9864 14.38607843225640
IRIDIUM 172             
1 43927U 19002F   23118.51151788  .00000055  00000+0  12639-4 0  9992
2 43927  86.3920 112.4238 0002243  88.4153 271.7300 14.34217804224750
IRIDIUM 175             
1 43928U 19002G   23118.69281158  .00000577  00000+0  87553-4 0  9993
2 43928  86.1470 109.0151 0002521  91.0377 269.1128 14.72245138230706
IRIDIUM 171             
1 43929U 19002H   23118.70179208 -.00000405  00000+0 -15170-3 0  9995
2 43929  86.3929 112.5232 0002073  85.2952 274.8480 14.34216519224776
IRIDIUM 170             
1 43930U 19002J   23118.70539532  .00000548  00000+0  82905-4 0  9994
2 43930  86.6055 112.4029 0002615  92.8373 267.3143 14.72268388230725
IRIDIUM 167             
1 43931U 19002K   23118.69544409  .00000191  00000+0  61287-4 0  9996
2 43931  86.3921 112.3589 0002132  84.4684 275.6755 14.34219596224775
